STARLINK-35352          
1 66177U 25243A   25319.50003471 -.01967342  00000+0 -18605-1 0  9997
2 66177  53.1594  57.3645 0001298  61.0598  52.4761 15.69408839  4209
STARLINK-35363          
1 66178U 25243B   25319.50003471 -.01970484  00000+0 -18637-1 0  9994
2 66178  53.1598  57.3722 0001345  58.9559  50.7455 15.69410985  4267
STARLINK-35346          
1 66179U 25243C   25319.50003471 -.01963546  00000+0 -18565-1 0  9996
2 66179  53.1598  57.3761 0001249  61.7482  46.0344 15.69408374  4209
STARLINK-35335          
1 66180U 25243D   25319.50003471 -.01965707  00000+0 -18587-1 0  9993
2 66180  53.1596  57.3812 0001345  62.4031  43.4635 15.69408895  4203
STARLINK-35342          
1 66181U 25243E   25319.50003471 -.01964032  00000+0 -18570-1 0  9996
2 66181  53.1597  57.3853 0001305  63.1346  40.8141 15.69408606  4206
STARLINK-35333          
1 66182U 25243F   25319.50003471 -.01963439  00000+0 -18564-1 0  9990
2 66182  53.1597  57.3887 0001308  66.2534  35.7800 15.69407510  4152
STARLINK-35310          
1 66183U 25243G   25319.50003471 -.01963437  00000+0 -18564-1 0  9999
2 66183  53.1596  57.3934 0001331  64.4140  35.7015 15.69408023  4264
STARLINK-35317          
1 66184U 25243H   25319.48474774  .00715009  00000+0  45593-2 0  9995
2 66184  53.1586  57.4972 0015596 283.4658  76.4624 15.73706749  3147
STARLINK-35377          
1 66185U 25243J   25319.50003471 -.01966298  00000+0 -18594-1 0  9992
2 66185  53.1593  57.4415 0001277  63.6908  13.4226 15.69409545  4267
STARLINK-35365          
1 66186U 25243K   25319.50003471 -.01974298  00000+0 -18678-1 0  9995
2 66186  53.1597  57.4503 0001194  56.2234  17.0602 15.69411625  4202
STARLINK-35350          
1 66187U 25243L   25319.50003471 -.01968518  00000+0 -18616-1 0  9996
2 66187  53.1596  57.4459 0001219  60.9899  14.2052 15.69411616  4207
STARLINK-35041          
1 66188U 25243M   25319.29372159  .00341345  00000+0  23013-2 0  9993
2 66188  53.1579  58.4390 0012582 256.4804 103.4814 15.73495064  3117
