CCSDS_OMM_VERS = 2.0
CREATION_DATE  = 
ORIGINATOR     = 

OBJECT_NAME    = STARLINK-35352
OBJECT_ID      = 2025-243A
CENTER_NAME    = EARTH
REF_FRAME      = TEME
TIME_SYSTEM    = UTC
MEAN_ELEMENT_THEORY = SGP/SGP4

EPOCH          = 2025-11-15T12:00:02.998944
MEAN_MOTION    = 15.69408839
ECCENTRICITY   = .0001298
INCLINATION    = 53.1594
RA_OF_ASC_NODE = 57.3645
ARG_OF_PERICENTER = 61.0598
MEAN_ANOMALY   = 52.4761

EPHEMERIS_TYPE = 0
CLASSIFICATION_TYPE = U
NORAD_CAT_ID   = 66177
ELEMENT_SET_NO = 999
REV_AT_EPOCH   = 420
BSTAR          = -.18605E-1
MEAN_MOTION_DOT = -.1967342E-1
MEAN_MOTION_DDOT = 0

CCSDS_OMM_VERS = 2.0
CREATION_DATE  = 
ORIGINATOR     = 

OBJECT_NAME    = STARLINK-35363
OBJECT_ID      = 2025-243B
CENTER_NAME    = EARTH
REF_FRAME      = TEME
TIME_SYSTEM    = UTC
MEAN_ELEMENT_THEORY = SGP/SGP4

EPOCH          = 2025-11-15T12:00:02.998944
MEAN_MOTION    = 15.69410985
ECCENTRICITY   = .0001345
INCLINATION    = 53.1598
RA_OF_ASC_NODE = 57.3722
ARG_OF_PERICENTER = 58.9559
MEAN_ANOMALY   = 50.7455

EPHEMERIS_TYPE = 0
CLASSIFICATION_TYPE = U
NORAD_CAT_ID   = 66178
ELEMENT_SET_NO = 999
REV_AT_EPOCH   = 426
BSTAR          = -.18637E-1
MEAN_MOTION_DOT = -.1970484E-1
MEAN_MOTION_DDOT = 0

CCSDS_OMM_VERS = 2.0
CREATION_DATE  = 
ORIGINATOR     = 

OBJECT_NAME    = STARLINK-35346
OBJECT_ID      = 2025-243C
CENTER_NAME    = EARTH
REF_FRAME      = TEME
TIME_SYSTEM    = UTC
MEAN_ELEMENT_THEORY = SGP/SGP4

EPOCH          = 2025-11-15T12:00:02.998944
MEAN_MOTION    = 15.69408374
ECCENTRICITY   = .0001249
INCLINATION    = 53.1598
RA_OF_ASC_NODE = 57.3761
ARG_OF_PERICENTER = 61.7482
MEAN_ANOMALY   = 46.0344

EPHEMERIS_TYPE = 0
CLASSIFICATION_TYPE = U
NORAD_CAT_ID   = 66179
ELEMENT_SET_NO = 999
REV_AT_EPOCH   = 420
BSTAR          = -.18565E-1
MEAN_MOTION_DOT = -.1963546E-1
MEAN_MOTION_DDOT = 0

CCSDS_OMM_VERS = 2.0
CREATION_DATE  = 
ORIGINATOR     = 

OBJECT_NAME    = STARLINK-35335
OBJECT_ID      = 2025-243D
CENTER_NAME    = EARTH
REF_FRAME      = TEME
TIME_SYSTEM    = UTC
MEAN_ELEMENT_THEORY = SGP/SGP4

EPOCH          = 2025-11-15T12:00:02.998944
MEAN_MOTION    = 15.69408895
ECCENTRICITY   = .0001345
INCLINATION    = 53.1596
RA_OF_ASC_NODE = 57.3812
ARG_OF_PERICENTER = 62.4031
MEAN_ANOMALY   = 43.4635

EPHEMERIS_TYPE = 0
CLASSIFICATION_TYPE = U
NORAD_CAT_ID   = 66180
ELEMENT_SET_NO = 999
REV_AT_EPOCH   = 420
BSTAR          = -.18587E-1
MEAN_MOTION_DOT = -.1965707E-1
MEAN_MOTION_DDOT = 0

CCSDS_OMM_VERS = 2.0
CREATION_DATE  = 
ORIGINATOR     = 

OBJECT_NAME    = STARLINK-35342
OBJECT_ID      = 2025-243E
CENTER_NAME    = EARTH
REF_FRAME      = TEME
TIME_SYSTEM    = UTC
MEAN_ELEMENT_THEORY = SGP/SGP4

EPOCH          = 2025-11-15T12:00:02.998944
MEAN_MOTION    = 15.69408606
ECCENTRICITY   = .0001305
INCLINATION    = 53.1597
RA_OF_ASC_NODE = 57.3853
ARG_OF_PERICENTER = 63.1346
MEAN_ANOMALY   = 40.8141

EPHEMERIS_TYPE = 0
CLASSIFICATION_TYPE = U
NORAD_CAT_ID   = 66181
ELEMENT_SET_NO = 999
REV_AT_EPOCH   = 420
BSTAR          = -.1857E-1
MEAN_MOTION_DOT = -.1964032E-1
MEAN_MOTION_DDOT = 0

CCSDS_OMM_VERS = 2.0
CREATION_DATE  = 
ORIGINATOR     = 

OBJECT_NAME    = STARLINK-35333
OBJECT_ID      = 2025-243F
CENTER_NAME    = EARTH
REF_FRAME      = TEME
TIME_SYSTEM    = UTC
MEAN_ELEMENT_THEORY = SGP/SGP4

EPOCH          = 2025-11-15T12:00:02.998944
MEAN_MOTION    = 15.69407510
ECCENTRICITY   = .0001308
INCLINATION    = 53.1597
RA_OF_ASC_NODE = 57.3887
ARG_OF_PERICENTER = 66.2534
MEAN_ANOMALY   = 35.7800

EPHEMERIS_TYPE = 0
CLASSIFICATION_TYPE = U
NORAD_CAT_ID   = 66182
ELEMENT_SET_NO = 999
REV_AT_EPOCH   = 415
BSTAR          = -.18564E-1
MEAN_MOTION_DOT = -.1963439E-1
MEAN_MOTION_DDOT = 0

CCSDS_OMM_VERS = 2.0
CREATION_DATE  = 
ORIGINATOR     = 

OBJECT_NAME    = STARLINK-35310
OBJECT_ID      = 2025-243G
CENTER_NAME    = EARTH
REF_FRAME      = TEME
TIME_SYSTEM    = UTC
MEAN_ELEMENT_THEORY = SGP/SGP4

EPOCH          = 2025-11-15T12:00:02.998944
MEAN_MOTION    = 15.69408023
ECCENTRICITY   = .0001331
INCLINATION    = 53.1596
RA_OF_ASC_NODE = 57.3934
ARG_OF_PERICENTER = 64.4140
MEAN_ANOMALY   = 35.7015

EPHEMERIS_TYPE = 0
CLASSIFICATION_TYPE = U
NORAD_CAT_ID   = 66183
ELEMENT_SET_NO = 999
REV_AT_EPOCH   = 426
BSTAR          = -.18564E-1
MEAN_MOTION_DOT = -.1963437E-1
MEAN_MOTION_DDOT = 0

CCSDS_OMM_VERS = 2.0
CREATION_DATE  = 
ORIGINATOR     = 

OBJECT_NAME    = STARLINK-35317
OBJECT_ID      = 2025-243H
CENTER_NAME    = EARTH
REF_FRAME      = TEME
TIME_SYSTEM    = UTC
MEAN_ELEMENT_THEORY = SGP/SGP4

EPOCH          = 2025-11-15T11:38:02.204736
MEAN_MOTION    = 15.73706749
ECCENTRICITY   = .0015596
INCLINATION    = 53.1586
RA_OF_ASC_NODE = 57.4972
ARG_OF_PERICENTER = 283.4658
MEAN_ANOMALY   = 76.4624

EPHEMERIS_TYPE = 0
CLASSIFICATION_TYPE = U
NORAD_CAT_ID   = 66184
ELEMENT_SET_NO = 999
REV_AT_EPOCH   = 314
BSTAR          = .45593E-2
MEAN_MOTION_DOT = .715009E-2
MEAN_MOTION_DDOT = 0

CCSDS_OMM_VERS = 2.0
CREATION_DATE  = 
ORIGINATOR     = 

OBJECT_NAME    = STARLINK-35377
OBJECT_ID      = 2025-243J
CENTER_NAME    = EARTH
REF_FRAME      = TEME
TIME_SYSTEM    = UTC
MEAN_ELEMENT_THEORY = SGP/SGP4

EPOCH          = 2025-11-15T12:00:02.998944
MEAN_MOTION    = 15.69409545
ECCENTRICITY   = .0001277
INCLINATION    = 53.1593
RA_OF_ASC_NODE = 57.4415
ARG_OF_PERICENTER = 63.6908
MEAN_ANOMALY   = 13.4226

EPHEMERIS_TYPE = 0
CLASSIFICATION_TYPE = U
NORAD_CAT_ID   = 66185
ELEMENT_SET_NO = 999
REV_AT_EPOCH   = 426
BSTAR          = -.18594E-1
MEAN_MOTION_DOT = -.1966298E-1
MEAN_MOTION_DDOT = 0

CCSDS_OMM_VERS = 2.0
CREATION_DATE  = 
ORIGINATOR     = 

OBJECT_NAME    = STARLINK-35365
OBJECT_ID      = 2025-243K
CENTER_NAME    = EARTH
REF_FRAME      = TEME
TIME_SYSTEM    = UTC
MEAN_ELEMENT_THEORY = SGP/SGP4

EPOCH          = 2025-11-15T12:00:02.998944
MEAN_MOTION    = 15.69411625
ECCENTRICITY   = .0001194
INCLINATION    = 53.1597
RA_OF_ASC_NODE = 57.4503
ARG_OF_PERICENTER = 56.2234
MEAN_ANOMALY   = 17.0602

EPHEMERIS_TYPE = 0
CLASSIFICATION_TYPE = U
NORAD_CAT_ID   = 66186
ELEMENT_SET_NO = 999
REV_AT_EPOCH   = 420
BSTAR          = -.18678E-1
MEAN_MOTION_DOT = -.1974298E-1
MEAN_MOTION_DDOT = 0

CCSDS_OMM_VERS = 2.0
CREATION_DATE  = 
ORIGINATOR     = 

OBJECT_NAME    = STARLINK-35350
OBJECT_ID      = 2025-243L
CENTER_NAME    = EARTH
REF_FRAME      = TEME
TIME_SYSTEM    = UTC
MEAN_ELEMENT_THEORY = SGP/SGP4

EPOCH          = 2025-11-15T12:00:02.998944
MEAN_MOTION    = 15.69411616
ECCENTRICITY   = .0001219
INCLINATION    = 53.1596
RA_OF_ASC_NODE = 57.4459
ARG_OF_PERICENTER = 60.9899
MEAN_ANOMALY   = 14.2052

EPHEMERIS_TYPE = 0
CLASSIFICATION_TYPE = U
NORAD_CAT_ID   = 66187
ELEMENT_SET_NO = 999
REV_AT_EPOCH   = 420
BSTAR          = -.18616E-1
MEAN_MOTION_DOT = -.1968518E-1
MEAN_MOTION_DDOT = 0

CCSDS_OMM_VERS = 2.0
CREATION_DATE  = 
ORIGINATOR     = 

OBJECT_NAME    = STARLINK-35041
OBJECT_ID      = 2025-243M
CENTER_NAME    = EARTH
REF_FRAME      = TEME
TIME_SYSTEM    = UTC
MEAN_ELEMENT_THEORY = SGP/SGP4

EPOCH          = 2025-11-15T07:02:57.545376
MEAN_MOTION    = 15.73495064
ECCENTRICITY   = .0012582
INCLINATION    = 53.1579
RA_OF_ASC_NODE = 58.4390
ARG_OF_PERICENTER = 256.4804
MEAN_ANOMALY   = 103.4814

EPHEMERIS_TYPE = 0
CLASSIFICATION_TYPE = U
NORAD_CAT_ID   = 66188
ELEMENT_SET_NO = 999
REV_AT_EPOCH   = 311
BSTAR          = .23013E-2
MEAN_MOTION_DOT = .341345E-2
MEAN_MOTION_DDOT = 0

